[{"OBJECT_NAME":"STARLINK-35674","OBJECT_ID":"2025-299R","EPOCH":"2026-01-07T20:00:01.999872","MEAN_MOTION":15.40649752,"ECCENTRICITY":0.0002043,"INCLINATION":43.001,"RA_OF_ASC_NODE":159.6058,"ARG_OF_PERICENTER":279.3133,"MEAN_ANOMALY":276.4417,"EPHEMERIS_TYPE":0,"CLASSIFICATION_TYPE":"U","NORAD_CAT_ID":67117,"ELEMENT_SET_NO":999,"REV_AT_EPOCH":479,"BSTAR":0.0021199,"MEAN_MOTION_DOT":0.00089141,"MEAN_MOTION_DDOT":0},{"OBJECT_NAME":"STARLINK-35701","OBJECT_ID":"2025-299S","EPOCH":"2026-01-07T17:03:09.300384","MEAN_MOTION":15.50625925,"ECCENTRICITY":0.0001915,"INCLINATION":42.9999,"RA_OF_ASC_NODE":160.0027,"ARG_OF_PERICENTER":266.1476,"MEAN_ANOMALY":93.9165,"EPHEMERIS_TYPE":0,"CLASSIFICATION_TYPE":"U","NORAD_CAT_ID":67118,"ELEMENT_SET_NO":999,"REV_AT_EPOCH":371,"BSTAR":0.0018419,"MEAN_MOTION_DOT":0.00109421,"MEAN_MOTION_DDOT":0},{"OBJECT_NAME":"STARLINK-36179","OBJECT_ID":"2025-299T","EPOCH":"2026-01-07T20:00:01.999872","MEAN_MOTION":15.40648654,"ECCENTRICITY":0.0001599,"INCLINATION":43.0009,"RA_OF_ASC_NODE":159.5741,"ARG_OF_PERICENTER":276.5167,"MEAN_ANOMALY":291.677,"EPHEMERIS_TYPE":0,"CLASSIFICATION_TYPE":"U","NORAD_CAT_ID":67119,"ELEMENT_SET_NO":999,"REV_AT_EPOCH":500,"BSTAR":0.0020272,"MEAN_MOTION_DOT":0.00085184,"MEAN_MOTION_DDOT":0},{"OBJECT_NAME":"STARLINK-36217","OBJECT_ID":"2025-299U","EPOCH":"2026-01-07T17:02:39.627168","MEAN_MOTION":15.5059031,"ECCENTRICITY":0.0001341,"INCLINATION":42.9999,"RA_OF_ASC_NODE":159.9991,"ARG_OF_PERICENTER":259.8711,"MEAN_ANOMALY":100.1998,"EPHEMERIS_TYPE":0,"CLASSIFICATION_TYPE":"U","NORAD_CAT_ID":67120,"ELEMENT_SET_NO":999,"REV_AT_EPOCH":371,"BSTAR":0.0016766,"MEAN_MOTION_DOT":0.00099314,"MEAN_MOTION_DDOT":0},{"OBJECT_NAME":"STARLINK-36124","OBJECT_ID":"2025-299V","EPOCH":"2026-01-07T03:06:24.252768","MEAN_MOTION":15.50538893,"ECCENTRICITY":0.00025455,"INCLINATION":42.9991,"RA_OF_ASC_NODE":163.3817,"ARG_OF_PERICENTER":10.5156,"MEAN_ANOMALY":349.5757,"EPHEMERIS_TYPE":0,"CLASSIFICATION_TYPE":"U","NORAD_CAT_ID":67121,"ELEMENT_SET_NO":999,"REV_AT_EPOCH":362,"BSTAR":0.0019921456,"MEAN_MOTION_DOT":0.00118144,"MEAN_MOTION_DDOT":0},{"OBJECT_NAME":"STARLINK-36188","OBJECT_ID":"2025-299W","EPOCH":"2026-01-07T20:00:01.999872","MEAN_MOTION":15.43510027,"ECCENTRICITY":9.91e-5,"INCLINATION":43.0008,"RA_OF_ASC_NODE":159.3131,"ARG_OF_PERICENTER":265.2476,"MEAN_ANOMALY":51.5243,"EPHEMERIS_TYPE":0,"CLASSIFICATION_TYPE":"U","NORAD_CAT_ID":67122,"ELEMENT_SET_NO":999,"REV_AT_EPOCH":500,"BSTAR":-0.042935,"MEAN_MOTION_DOT":-0.01779651,"MEAN_MOTION_DDOT":0},{"OBJECT_NAME":"STARLINK-36151","OBJECT_ID":"2025-299X","EPOCH":"2026-01-07T20:00:01.999872","MEAN_MOTION":15.40652952,"ECCENTRICITY":0.0001027,"INCLINATION":43.0007,"RA_OF_ASC_NODE":159.5151,"ARG_OF_PERICENTER":287.8985,"MEAN_ANOMALY":305.1657,"EPHEMERIS_TYPE":0,"CLASSIFICATION_TYPE":"U","NORAD_CAT_ID":67123,"ELEMENT_SET_NO":999,"REV_AT_EPOCH":500,"BSTAR":0.0025938,"MEAN_MOTION_DOT":0.00109441,"MEAN_MOTION_DDOT":0},{"OBJECT_NAME":"STARLINK-36195","OBJECT_ID":"2025-299Y","EPOCH":"2026-01-07T20:00:01.999872","MEAN_MOTION":15.40624723,"ECCENTRICITY":0.0001133,"INCLINATION":42.9999,"RA_OF_ASC_NODE":159.3625,"ARG_OF_PERICENTER":293.8925,"MEAN_ANOMALY":1.3807,"EPHEMERIS_TYPE":0,"CLASSIFICATION_TYPE":"U","NORAD_CAT_ID":67124,"ELEMENT_SET_NO":999,"REV_AT_EPOCH":500,"BSTAR":0.0023856,"MEAN_MOTION_DOT":0.00100418,"MEAN_MOTION_DDOT":0},{"OBJECT_NAME":"STARLINK-36219","OBJECT_ID":"2025-299Z","EPOCH":"2026-01-07T16:59:43.939680","MEAN_MOTION":15.50442205,"ECCENTRICITY":0.0004927,"INCLINATION":43.0001,"RA_OF_ASC_NODE":159.9826,"ARG_OF_PERICENTER":131.9398,"MEAN_ANOMALY":228.1883,"EPHEMERIS_TYPE":0,"CLASSIFICATION_TYPE":"U","NORAD_CAT_ID":67125,"ELEMENT_SET_NO":999,"REV_AT_EPOCH":371,"BSTAR":0.0013881,"MEAN_MOTION_DOT":0.00081577,"MEAN_MOTION_DDOT":0},{"OBJECT_NAME":"STARLINK-36223","OBJECT_ID":"2025-299AA","EPOCH":"2026-01-07T16:59:12.248160","MEAN_MOTION":15.50607082,"ECCENTRICITY":0.0001921,"INCLINATION":43.0004,"RA_OF_ASC_NODE":159.9799,"ARG_OF_PERICENTER":265.243,"MEAN_ANOMALY":94.8211,"EPHEMERIS_TYPE":0,"CLASSIFICATION_TYPE":"U","NORAD_CAT_ID":67126,"ELEMENT_SET_NO":999,"REV_AT_EPOCH":371,"BSTAR":0.0013282,"MEAN_MOTION_DOT":0.00078444,"MEAN_MOTION_DDOT":0},{"OBJECT_NAME":"STARLINK-36164","OBJECT_ID":"2025-299AB","EPOCH":"2026-01-07T16:58:42.599136","MEAN_MOTION":15.50592128,"ECCENTRICITY":0.0001506,"INCLINATION":43.0002,"RA_OF_ASC_NODE":159.9775,"ARG_OF_PERICENTER":265.6144,"MEAN_ANOMALY":94.4544,"EPHEMERIS_TYPE":0,"CLASSIFICATION_TYPE":"U","NORAD_CAT_ID":67127,"ELEMENT_SET_NO":999,"REV_AT_EPOCH":371,"BSTAR":0.0017498,"MEAN_MOTION_DOT":0.0010373,"MEAN_MOTION_DDOT":0},{"OBJECT_NAME":"STARLINK-35685","OBJECT_ID":"2025-299AC","EPOCH":"2026-01-07T20:00:01.999872","MEAN_MOTION":15.40683234,"ECCENTRICITY":0.0002256,"INCLINATION":43.0004,"RA_OF_ASC_NODE":159.4517,"ARG_OF_PERICENTER":295.4717,"MEAN_ANOMALY":322.3923,"EPHEMERIS_TYPE":0,"CLASSIFICATION_TYPE":"U","NORAD_CAT_ID":67128,"ELEMENT_SET_NO":999,"REV_AT_EPOCH":500,"BSTAR":0.0024612,"MEAN_MOTION_DOT":0.00103863,"MEAN_MOTION_DDOT":0},{"OBJECT_NAME":"STARLINK-36214","OBJECT_ID":"2025-299AD","EPOCH":"2026-01-07T16:58:12.954432","MEAN_MOTION":15.50621538,"ECCENTRICITY":0.000156,"INCLINATION":43.0006,"RA_OF_ASC_NODE":159.9741,"ARG_OF_PERICENTER":260.876,"MEAN_ANOMALY":99.1923,"EPHEMERIS_TYPE":0,"CLASSIFICATION_TYPE":"U","NORAD_CAT_ID":67129,"ELEMENT_SET_NO":999,"REV_AT_EPOCH":371,"BSTAR":0.0015917,"MEAN_MOTION_DOT":0.00094313,"MEAN_MOTION_DDOT":0},{"OBJECT_NAME":"STARLINK-36194","OBJECT_ID":"2025-299AE","EPOCH":"2026-01-07T16:57:14.053824","MEAN_MOTION":15.50593986,"ECCENTRICITY":0.0003473,"INCLINATION":42.9999,"RA_OF_ASC_NODE":159.9704,"ARG_OF_PERICENTER":262.6217,"MEAN_ANOMALY":97.4249,"EPHEMERIS_TYPE":0,"CLASSIFICATION_TYPE":"U","NORAD_CAT_ID":67130,"ELEMENT_SET_NO":999,"REV_AT_EPOCH":371,"BSTAR":0.0017929,"MEAN_MOTION_DOT":0.0010635,"MEAN_MOTION_DDOT":0},{"OBJECT_NAME":"STARLINK-36182","OBJECT_ID":"2025-304A","EPOCH":"2026-01-07T20:00:01.999872","MEAN_MOTION":15.42662011,"ECCENTRICITY":0.0003308,"INCLINATION":70.0001,"RA_OF_ASC_NODE":334.2284,"ARG_OF_PERICENTER":269.0976,"MEAN_ANOMALY":354.7745,"EPHEMERIS_TYPE":0,"CLASSIFICATION_TYPE":"U","NORAD_CAT_ID":67192,"ELEMENT_SET_NO":999,"REV_AT_EPOCH":463,"BSTAR":0.0020627,"MEAN_MOTION_DOT":0.000911,"MEAN_MOTION_DDOT":0},{"OBJECT_NAME":"STARLINK-36279","OBJECT_ID":"2025-304B","EPOCH":"2026-01-07T20:00:01.999872","MEAN_MOTION":15.52510348,"ECCENTRICITY":0.0003002,"INCLINATION":70.0001,"RA_OF_ASC_NODE":334.1708,"ARG_OF_PERICENTER":260.4387,"MEAN_ANOMALY":52.5098,"EPHEMERIS_TYPE":0,"CLASSIFICATION_TYPE":"U","NORAD_CAT_ID":67193,"ELEMENT_SET_NO":999,"REV_AT_EPOCH":466,"BSTAR":0.00015773,"MEAN_MOTION_DOT":9.545e-5,"MEAN_MOTION_DDOT":0},{"OBJECT_NAME":"STARLINK-36284","OBJECT_ID":"2025-304C","EPOCH":"2026-01-07T20:00:01.999872","MEAN_MOTION":15.5262401,"ECCENTRICITY":0.0003036,"INCLINATION":70.0001,"RA_OF_ASC_NODE":334.1695,"ARG_OF_PERICENTER":264.3341,"MEAN_ANOMALY":50.507,"EPHEMERIS_TYPE":0,"CLASSIFICATION_TYPE":"U","NORAD_CAT_ID":67194,"ELEMENT_SET_NO":999,"REV_AT_EPOCH":466,"BSTAR":-0.036693,"MEAN_MOTION_DOT":-0.02024673,"MEAN_MOTION_DDOT":0},{"OBJECT_NAME":"STARLINK-36291","OBJECT_ID":"2025-304D","EPOCH":"2026-01-07T20:00:01.999872","MEAN_MOTION":15.52512055,"ECCENTRICITY":0.0003034,"INCLINATION":70.0001,"RA_OF_ASC_NODE":334.1662,"ARG_OF_PERICENTER":265.1689,"MEAN_ANOMALY":51.61,"EPHEMERIS_TYPE":0,"CLASSIFICATION_TYPE":"U","NORAD_CAT_ID":67195,"ELEMENT_SET_NO":999,"REV_AT_EPOCH":466,"BSTAR":8.4437e-5,"MEAN_MOTION_DOT":5.029e-5,"MEAN_MOTION_DDOT":0},{"OBJECT_NAME":"STARLINK-36239","OBJECT_ID":"2025-304E","EPOCH":"2026-01-07T20:00:01.999872","MEAN_MOTION":15.46357629,"ECCENTRICITY":0.0003431,"INCLINATION":70,"RA_OF_ASC_NODE":334.1814,"ARG_OF_PERICENTER":257.9535,"MEAN_ANOMALY":45.6567,"EPHEMERIS_TYPE":0,"CLASSIFICATION_TYPE":"U","NORAD_CAT_ID":67196,"ELEMENT_SET_NO":999,"REV_AT_EPOCH":466,"BSTAR":-0.045866,"MEAN_MOTION_DOT":-0.02026702,"MEAN_MOTION_DDOT":0},{"OBJECT_NAME":"STARLINK-36283","OBJECT_ID":"2025-304F","EPOCH":"2026-01-07T20:00:01.999872","MEAN_MOTION":15.52647193,"ECCENTRICITY":0.0003138,"INCLINATION":70.0001,"RA_OF_ASC_NODE":334.1588,"ARG_OF_PERICENTER":259.3108,"MEAN_ANOMALY":63.189,"EPHEMERIS_TYPE":0,"CLASSIFICATION_TYPE":"U","NORAD_CAT_ID":67197,"ELEMENT_SET_NO":999,"REV_AT_EPOCH":466,"BSTAR":-0.0031895,"MEAN_MOTION_DOT":-0.00192598,"MEAN_MOTION_DDOT":0},{"OBJECT_NAME":"STARLINK-36267","OBJECT_ID":"2025-304G","EPOCH":"2026-01-07T20:00:01.999872","MEAN_MOTION":15.52424975,"ECCENTRICITY":0.0002911,"INCLINATION":70.0001,"RA_OF_ASC_NODE":334.161,"ARG_OF_PERICENTER":261.9885,"MEAN_ANOMALY":58.6552,"EPHEMERIS_TYPE":0,"CLASSIFICATION_TYPE":"U","NORAD_CAT_ID":67198,"ELEMENT_SET_NO":999,"REV_AT_EPOCH":463,"BSTAR":0.0026896,"MEAN_MOTION_DOT":0.00168276,"MEAN_MOTION_DDOT":0},{"OBJECT_NAME":"STARLINK-36268","OBJECT_ID":"2025-304H","EPOCH":"2026-01-07T20:00:01.999872","MEAN_MOTION":15.52519675,"ECCENTRICITY":0.0003034,"INCLINATION":70.0002,"RA_OF_ASC_NODE":334.1572,"ARG_OF_PERICENTER":262.4903,"MEAN_ANOMALY":61.9654,"EPHEMERIS_TYPE":0,"CLASSIFICATION_TYPE":"U","NORAD_CAT_ID":67199,"ELEMENT_SET_NO":999,"REV_AT_EPOCH":466,"BSTAR":-0.00023747,"MEAN_MOTION_DOT":-0.00014749,"MEAN_MOTION_DDOT":0},{"OBJECT_NAME":"STARLINK-36270","OBJECT_ID":"2025-304J","EPOCH":"2026-01-07T20:00:01.999872","MEAN_MOTION":15.42652843,"ECCENTRICITY":0.0003539,"INCLINATION":69.9999,"RA_OF_ASC_NODE":334.2009,"ARG_OF_PERICENTER":269.7195,"MEAN_ANOMALY":16.1644,"EPHEMERIS_TYPE":0,"CLASSIFICATION_TYPE":"U","NORAD_CAT_ID":67200,"ELEMENT_SET_NO":999,"REV_AT_EPOCH":466,"BSTAR":0.0025127,"MEAN_MOTION_DOT":0.00111267,"MEAN_MOTION_DDOT":0}]
